[{"OBJECT_NAME":"COSMOS 2503","OBJECT_ID":"2015-009A","EPOCH":"2026-03-09T16:42:37.703808","MEAN_MOTION":15.06275973,"ECCENTRICITY":0.00153206,"INCLINATION":97.8437,"RA_OF_ASC_NODE":123.7175,"ARG_OF_PERICENTER":225.745,"MEAN_ANOMALY":134.252,"EPHEMERIS_TYPE":0,"CLASSIFICATION_TYPE":"U","NORAD_CAT_ID":40420,"ELEMENT_SET_NO":999,"REV_AT_EPOCH":60395,"BSTAR":0.00019589832,"MEAN_MOTION_DOT":2.817e-5,"MEAN_MOTION_DDOT":0},{"OBJECT_NAME":"STARLINK-5731","OBJECT_ID":"2023-083BA","EPOCH":"2026-03-09T08:32:43.041408","MEAN_MOTION":15.02773384,"ECCENTRICITY":0.0004484,"INCLINATION":43.0043,"RA_OF_ASC_NODE":70.2888,"ARG_OF_PERICENTER":152.1255,"MEAN_ANOMALY":207.9829,"EPHEMERIS_TYPE":0,"CLASSIFICATION_TYPE":"U","NORAD_CAT_ID":56924,"ELEMENT_SET_NO":999,"REV_AT_EPOCH":15188,"BSTAR":0.0021362646,"MEAN_MOTION_DOT":0.0002896,"MEAN_MOTION_DDOT":0}]
