COSMOS 2503             
1 40420U 15009A   26068.69626972  .00002817  00000+0  19590-3 0  9998
2 40420  97.8437 123.7175 0015321 225.7450 134.2520 15.06275973603958
STARLINK-5731           
1 56924U 23083BA  26068.35605372  .00028960  00000+0  21363-2 0  9996
2 56924  43.0043  70.2888 0004484 152.1255 207.9829 15.02773384151886
